NORAD_CAT_ID,OBJECT_NAME,OBJECT_TYPE,EPOCH,MEAN_MOTION,ECCENTRICITY,INCLINATION,RA_OF_ASC_NODE,ARG_OF_PERICENTER,MEAN_ANOMALY,BSTAR,MEAN_MOTION_DOT,MEAN_MOTION_DDOT,TLE_LINE0,TLE_LINE1,TLE_LINE2,SEMIMAJOR_AXIS,PERIOD,APOGEE,PERIGEE,DECAYED
53721.0,STARLINK-4707,PAYLOAD,2024-01-12 11:27:47,15.0883957,0.0001318,53.2151,187.8893,83.0747,277.0395,1.8928e-05,1.3e-07,0.0,0 STARLINK-4707,1 53721U 22107X   24012.47763458  .00000013  00000-0  18928-4 0  9999,2 53721  53.2151 187.8893 0001318  83.0747 277.0395 15.08839570 75116,6917.882,95.438,540.658,538.835,0.0
53721.0,STARLINK-4707,PAYLOAD,2024-01-12 17:49:20,15.08839335,0.0001299,53.2152,186.6998,83.7995,276.3145,1.2818e-05,-8.4e-07,0.0,0 STARLINK-4707,1 53721U 22107X   24012.74259466 -.00000084  00000-0  12818-4 0  9999,2 53721  53.2152 186.6998 0001299  83.7995 276.3145 15.08839335 75619,6917.882,95.438,540.646,538.849,0.0
53721.0,STARLINK-4707,PAYLOAD,2024-01-13 14:29:20,15.08840629,0.000128,53.2153,182.8336,90.1859,269.928,3.4498e-05,2.61e-06,0.0,0 STARLINK-4707,1 53721U 22107X   24013.60371336  .00000261  00000-0  34498-4 0  9990,2 53721  53.2153 182.8336 0001280  90.1859 269.9280 15.08840629 75745,6917.878,95.438,540.629,538.858,0.0
53721.0,STARLINK-4707,PAYLOAD,2024-01-13 17:40:06,15.08842879,0.0001293,53.2155,182.239,86.0641,274.0499,4.8823e-05,4.89e-06,0.0,0 STARLINK-4707,1 53721U 22107X   24013.73619158  .00000489  00000-0  48823-4 0  9990,2 53721  53.2155 182.2390 0001293  86.0641 274.0499 15.08842879 75308,6917.872,95.437,540.631,538.842,0.0
53721.0,STARLINK-4707,PAYLOAD,2024-01-14 11:09:21,15.08838264,0.0001346,53.216,178.9664,89.3835,270.7311,3.0095e-05,1.91e-06,0.0,0 STARLINK-4707,1 53721U 22107X   24014.46483531  .00000191  00000-0  30095-4 0  9997,2 53721  53.2160 178.9664 0001346  89.3835 270.7311 15.08838264 75411,6917.886,95.438,540.682,538.82,0.0
53721.0,STARLINK-4707,PAYLOAD,2024-01-14 14:20:07,15.08840491,0.0001334,53.2158,178.372,90.3604,269.7541,5.5299e-05,5.92e-06,0.0,0 STARLINK-4707,1 53721U 22107X   24014.59731325  .00000592  00000-0  55299-4 0  9996,2 53721  53.2158 178.3720 0001334  90.3604 269.7541 15.08840491 75898,6917.879,95.438,540.667,538.821,0.0
53721.0,STARLINK-4707,PAYLOAD,2024-01-14 17:30:54,15.08842168,0.0001302,53.2157,177.777,88.9503,271.1638,6.5978e-05,7.62e-06,0.0,0 STARLINK-4707,1 53721U 22107X   24014.72979182  .00000762  00000-0  65978-4 0  9990,2 53721  53.2157 177.7770 0001302  88.9503 271.1638 15.08842168 75911,6917.874,95.437,540.639,538.838,0.0
53721.0,STARLINK-4707,PAYLOAD,2024-01-15 14:10:54,15.08843474,0.0001197,53.215,173.9115,87.0142,273.0987,2.642e-05,1.33e-06,0.0,0 STARLINK-4707,1 53721U 22107X   24015.59091256  .00000133  00000-0  26420-4 0  9994,2 53721  53.2150 173.9115 0001197  87.0142 273.0987 15.08843474 76040,6917.87,95.437,540.563,538.907,0.0
53721.0,STARLINK-4707,PAYLOAD,2024-01-15 15:46:17,15.08845341,0.0001215,53.2153,173.6138,88.8917,271.2214,2.6009e-05,1.26e-06,0.0,0 STARLINK-4707,1 53721U 22107X   24015.65715132  .00000126  00000-0  26009-4 0  9992,2 53721  53.2153 173.6138 0001215  88.8917 271.2214 15.08845341 75592,6917.864,95.437,540.57,538.889,0.0
53721.0,STARLINK-4707,PAYLOAD,2024-01-16 09:15:33,15.08833628,0.0001327,53.2157,170.3436,78.4962,281.6179,2.6244e-05,1.3e-06,0.0,0 STARLINK-4707,1 53721U 22107X   24016.38580041  .00000130  00000-0  26244-4 0  9998,2 53721  53.2157 170.3436 0001327  78.4962 281.6179 15.08833628 75703,6917.9,95.438,540.683,538.847,0.0
53721.0,STARLINK-4707,PAYLOAD,2024-01-16 14:01:42,15.08833551,0.0001286,53.2155,169.4503,95.8409,264.2729,-3.2195e-05,-8e-06,0.0,0 STARLINK-4707,1 53721U 22107X   24016.58452238 -.00000800  00000-0 -32195-4 0  9994,2 53721  53.2155 169.4503 0001286  95.8409 264.2729 15.08833551 76195,6917.9,95.438,540.655,538.875,0.0
53721.0,STARLINK-4707,PAYLOAD,2024-01-16 18:47:52,15.08835492,0.0001282,53.2165,168.5578,82.4315,277.6822,-3.0286e-05,-7.7e-06,0.0,0 STARLINK-4707,1 53721U 22107X   24016.78324195 -.00000770  00000-0 -30286-4 0  9991,2 53721  53.2165 168.5578 0001282  82.4315 277.6822 15.08835492 76224,6917.894,95.438,540.646,538.872,0.0
53721.0,STARLINK-4707,PAYLOAD,2024-01-17 13:52:31,15.08771013,0.0001686,53.2168,164.9895,88.6101,271.5084,0.00082498,0.00012841,0.0,0 STARLINK-4707,1 53721U 22107X   24017.57813703  .00012841  00000-0  82498-3 0  9998,2 53721  53.2168 164.9895 0001686  88.6101 271.5084 15.08771013 76342,6918.091,95.442,541.123,538.79,0.0
53721.0,STARLINK-4707,PAYLOAD,2024-01-17 17:03:16,15.08837102,0.0001324,53.2171,164.3945,85.1871,274.9273,6.3824e-05,7.28e-06,0.0,0 STARLINK-4707,1 53721U 22107X   24017.71060280  .00000728  00000-0  63824-4 0  9992,2 53721  53.2171 164.3945 0001324  85.1871 274.9273 15.08837102 75901,6917.889,95.438,540.67,538.838,0.0
53721.0,STARLINK-4707,PAYLOAD,2024-01-18 13:43:12,15.08891144,0.0001694,53.2172,160.529,110.6909,249.4264,0.00054841,8.463e-05,0.0,0 STARLINK-4707,1 53721U 22107X   24018.57167467  .00008463  00000-0  54841-3 0  9994,2 53721  53.2172 160.5290 0001694 110.6909 249.4264 15.08891144 76497,6917.724,95.434,540.761,538.417,0.0
53721.0,STARLINK-4707,PAYLOAD,2024-01-18 16:53:57,15.08910416,0.0002406,53.2173,159.9342,39.8749,320.242,0.00070205,0.00010924,0.0,0 STARLINK-4707,1 53721U 22107X   24018.70413653  .00010924  00000-0  70205-3 0  9997,2 53721  53.2173 159.9342 0002406  39.8749 320.2420 15.08910416 76052,6917.665,95.433,541.195,537.866,0.0
53721.0,STARLINK-4707,PAYLOAD,2024-01-19 00:50:59,15.08817818,0.0001455,53.218,158.4485,69.1631,290.9517,-0.0001055,-1.966e-05,0.0,0 STARLINK-4707,1 53721U 22107X   24019.03541340 -.00001966  00000-0 -10550-3 0  9994,2 53721  53.2180 158.4485 0001455  69.1631 290.9517 15.08817818 76109,6917.948,95.439,540.82,538.807,0.0
53721.0,STARLINK-4707,PAYLOAD,2024-01-19 13:34:04,15.08830545,0.0001522,53.2176,156.0749,61.9355,298.1791,-8.2035e-05,-1.593e-05,0.0,0 STARLINK-4707,1 53721U 22107X   24019.56532922 -.00001593  00000-0 -82035-4 0  9992,2 53721  53.2176 156.0749 0001522  61.9355 298.1791 15.08830545 76644,6917.909,95.438,540.827,538.721,0.0
53721.0,STARLINK-4707,PAYLOAD,2024-01-19 15:09:27,15.08830927,0.0001783,53.2164,155.778,52.1802,307.9351,-7.9703e-05,-1.556e-05,0.0,0 STARLINK-4707,1 53721U 22107X   24019.63156993 -.00001556  00000-0 -79703-4 0  9997,2 53721  53.2164 155.7780 0001783  52.1802 307.9351 15.08830927 76195,6917.908,95.438,541.007,538.54,0.0
53721.0,STARLINK-4707,PAYLOAD,2024-01-20 08:38:41,15.08859974,0.000152,53.2162,152.5054,58.0862,302.0278,-0.0003807,-6.345e-05,0.0,0 STARLINK-4707,1 53721U 22107X   24020.36020489 -.00006345  00000-0 -38070-3 0  9991,2 53721  53.2162 152.5054 0001520  58.0862 302.0278 15.08859974 76302,6917.819,95.436,540.736,538.633,0.0
53721.0,STARLINK-4707,PAYLOAD,2024-01-20 15:00:14,15.08857141,0.0001633,53.2165,151.3166,56.9713,303.1436,-0.0003478,-5.822e-05,0.0,0 STARLINK-4707,1 53721U 22107X   24020.62516290 -.00005822  00000-0 -34780-3 0  9993,2 53721  53.2165 151.3166 0001633  56.9713 303.1436 15.08857141 76800,6917.828,95.436,540.823,538.563,0.0
53721.0,STARLINK-4707,PAYLOAD,2024-01-21 13:15:37,15.08838108,0.0001451,53.216,147.152,64.2619,295.8523,0.00018425,2.645e-05,0.0,0 STARLINK-4707,1 53721U 22107X   24021.55252035  .00002645  00000-0  18425-3 0  9996,2 53721  53.2160 147.1520 0001451  64.2619 295.8523 15.08838108 76487,6917.886,95.438,540.755,538.747,0.0
53721.0,STARLINK-4707,PAYLOAD,2024-01-21 14:51:00,15.08839946,0.0001459,53.2159,146.8544,67.0888,293.0258,0.00020317,2.947e-05,0.0,0 STARLINK-4707,1 53721U 22107X   24021.61875922  .00002947  00000-0  20317-3 0  9997,2 53721  53.2159 146.8544 0001459  67.0888 293.0258 15.08839946 76952,6917.881,95.438,540.755,538.736,0.0
53721.0,STARLINK-4707,PAYLOAD,2024-01-22 11:31:02,15.08837074,0.0001464,53.2167,142.9879,96.5628,263.5531,9.7236e-05,1.26e-05,0.0,0 STARLINK-4707,1 53721U 22107X   24022.47988658  .00001260  00000-0  97236-4 0  9995,2 53721  53.2167 142.9879 0001464  96.5628 263.5531 15.08837074 76624,6917.889,95.438,540.767,538.742,0.0
53721.0,STARLINK-4707,PAYLOAD,2024-01-22 14:41:48,15.08838169,0.0001203,53.2159,142.3917,89.2573,270.8557,8.2562e-05,1.026e-05,0.0,0 STARLINK-4707,1 53721U 22107X   24022.61236618  .00001026  00000-0  82562-4 0  9999,2 53721  53.2159 142.3917 0001203  89.2573 270.8557 15.08838169 77100,6917.886,95.438,540.583,538.919,0.0
53721.0,STARLINK-4707,PAYLOAD,2024-01-23 12:57:11,15.08848421,0.0001311,53.2164,138.2283,89.1263,270.988,3.9122e-05,3.35e-06,0.0,0 STARLINK-4707,1 53721U 22107X   24023.53972141  .00000335  00000-0  39122-4 0  9995,2 53721  53.2164 138.2283 0001311  89.1263 270.9880 15.08848421 76786,6917.855,95.437,540.627,538.813,0.0
53721.0,STARLINK-4707,PAYLOAD,2024-01-24 11:12:36,15.08834546,0.0001327,53.2166,134.0651,97.5585,262.5557,2.9182e-05,1.77e-06,0.0,0 STARLINK-4707,1 53721U 22107X   24024.46709246  .00000177  00000-0  29182-4 0  9991,2 53721  53.2166 134.0651 0001327  97.5585 262.5557 15.08834546 76925,6917.897,95.438,540.68,538.844,0.0
53721.0,STARLINK-4707,PAYLOAD,2024-01-24 12:47:59,15.08835277,0.0001365,53.2167,133.7673,101.3369,258.7776,3.2602e-05,2.31e-06,0.0,0 STARLINK-4707,1 53721U 22107X   24024.53333209  .00000231  00000-0  32602-4 0  9993,2 53721  53.2167 133.7673 0001365 101.3369 258.7776 15.08835277 77396,6917.895,95.438,540.704,538.816,0.0
53721.0,STARLINK-4707,PAYLOAD,2024-01-25 14:14:11,15.08785818,0.0001649,53.2161,129.0121,90.963,269.1551,0.00091037,0.00014209,0.0,0 STARLINK-4707,1 53721U 22107X   24025.59318425  .00014209  00000-0  91037-3 0  9999,2 53721  53.2161 129.0121 0001649  90.9630 269.1551 15.08785818 77555,6918.046,95.441,541.052,538.77,0.0
53721.0,STARLINK-4707,PAYLOAD,2024-01-26 10:54:10,15.08842372,0.0001315,53.2163,125.1462,75.4664,284.6474,0.0001574,2.218e-05,0.0,0 STARLINK-4707,1 53721U 22107X   24026.45429050  .00002218  00000-0  15740-3 0  9996,2 53721  53.2163 125.1462 0001315  75.4664 284.6474 15.08842372 77226,6917.873,95.437,540.648,538.828,0.0
